UNKNOWN                 
1 81893U          26059.18745322  .00001034  00000+0  10973-2 0  9992
2 81893 100.0566  51.7957 0021824  70.3264 290.0236 13.76887729614733
UNKNOWN                 
1 81899U          26057.26991389  .00001445  00000+0  34379-2 0  9993
2 81899 102.4116 177.6863 0171187  55.8113 305.9090 13.20433881588952
UNKNOWN                 
1 81921U          26043.00290307  .00002156  00000+0  89945-3 0  9998
2 81921  65.7084 274.0577 0843521  88.0128 281.7178 13.15370292 33840
UNKNOWN                 
1 81946U          26058.84740345  .00000111  00000+0  53335-3 0  9998
2 81946  66.4234   4.3155 0677665 314.2110  69.7902 12.42640677557461
UNKNOWN                 
1 81947U          26046.26945096  .00005449  00000+0  53381-3 0  9992
2 81947  66.0766 348.0426 0369403 102.1488 262.1248 14.53455041640397
UNKNOWN                 
1 81964U          26056.47811782  .00000202  00000+0  20472-3 0  9996
2 81964  66.5834  73.1648 0032615  26.0582 334.2130 13.95849466624475
UNKNOWN                 
1 81969U          26058.58555563  .00010243  00000+0  57789-3 0  9994
2 81969  86.6855 120.0486 0002455 219.6740 140.4320 15.13042256451787
UNKNOWN                 
1 81995U          26051.07796973  .00003706  00000+0  69737-3 0  9994
2 81995  65.7468 302.4623 0517247 262.9812  91.2196 14.04877272613961
UNKNOWN                 
1 82043U          26057.84210666  .00004204  00000+0  11566-2 0  9990
2 82043  97.9353 205.2109 0230213 214.2655 144.3497 14.32954722584749
UNKNOWN                 
1 82051U          26046.47695657  .00006292  00000+0  20421-2 0  9992
2 82051  98.7424 137.9574 0090792  69.8098 291.2824 14.36892613581707
UNKNOWN                 
1 82073U          26058.99645544  .00002216  00000+0  56477-3 0  9999
2 82073  97.7415 132.7587 0206578  52.1680 309.8009 14.39427779586234
UNKNOWN                 
1 82139U          26055.64331407  .00002288  00000+0  11467-2 0  9999
2 82139  99.0142 129.4014 0084194 192.5105 167.3979 14.15835113490579
